[{"OBJECT_NAME":"STARLINK-32087","OBJECT_ID":"2024-086W","EPOCH":"2026-03-09T00:56:36.177504","MEAN_MOTION":15.27570023,"ECCENTRICITY":0.00011213,"INCLINATION":43.0047,"RA_OF_ASC_NODE":63.4841,"ARG_OF_PERICENTER":270.5302,"MEAN_ANOMALY":89.5421,"EPHEMERIS_TYPE":0,"CLASSIFICATION_TYPE":"U","NORAD_CAT_ID":59702,"ELEMENT_SET_NO":999,"REV_AT_EPOCH":10401,"BSTAR":-1.988193e-5,"MEAN_MOTION_DOT":-8.09e-6,"MEAN_MOTION_DDOT":0},{"OBJECT_NAME":"CZ-6A DEB","OBJECT_ID":"2024-140XT","EPOCH":"2026-03-09T03:39:44.093088","MEAN_MOTION":15.17507252,"ECCENTRICITY":0.01850271,"INCLINATION":89.7161,"RA_OF_ASC_NODE":331.3348,"ARG_OF_PERICENTER":37.6736,"MEAN_ANOMALY":323.7298,"EPHEMERIS_TYPE":0,"CLASSIFICATION_TYPE":"U","NORAD_CAT_ID":61402,"ELEMENT_SET_NO":999,"REV_AT_EPOCH":8199,"BSTAR":0.0011238517,"MEAN_MOTION_DOT":0.00035461,"MEAN_MOTION_DDOT":0}]
